ONEWEB-0560             
1 55145U 23004F   24340.85232008  .00000066  00000+0  13431-3 0  9996
2 55145  87.9113  86.5815 0001285  99.7848 260.3429 13.18685445 96124
ONEWEB-0565             
1 55146U 23004G   24340.84599607  .00000048  00000+0  89093-4 0  9995
2 55146  87.9110  86.6526 0001344 125.0380 235.0878 13.18685568 96114
ONEWEB-0567             
1 55147U 23004H   24340.83967376  .00000101  00000+0  22247-3 0  9994
2 55147  87.9108  86.6084 0001140 113.0599 247.0653 13.18687130 96115
ONEWEB-0569             
1 55148U 23004J   24340.77775551  .00000347  00000+0  91455-3 0  9999
2 55148  87.8931  71.2658 0000618 113.0688 247.0506 13.13469264 96875
ONEWEB-0570             
1 55149U 23004K   24340.82703353  .00000069  00000+0  14208-3 0  9999
2 55149  87.9108  86.6112 0002006 124.2569 235.8753 13.18685573 96106
ONEWEB-0571             
1 55150U 23004L   24340.82070948  .00000087  00000+0  18687-3 0  9993
2 55150  87.9109  86.6199 0001130 144.4070 215.7138 13.18687574 96110
ONEWEB-0572             
1 55151U 23004M   24340.93288066  .00000047  00000+0  88777-4 0  9992
2 55151  87.9092 117.0799 0001498 109.0408 251.0885 13.17649148 93962
ONEWEB-0573             
1 55152U 23004N   24340.81438162  .00000065  00000+0  13135-3 0  9999
2 55152  87.9105  86.6340 0001499 139.6545 220.4698 13.18687723 96106
